     2.11           N: GPS NAV DATA                         RINEX VERSION / TYPE
teqc  2019Feb25                         20221121 12:25:32UTCPGM / RUN BY / DATE
OSX ker:10.11.6|Core i5|gcc 4.3 -m64|OSX ker:10.10+|=+      COMMENT
    4.6566D-09  1.4901D-08 -5.9605D-08 -5.9605D-08          ION ALPHA
    7.9872D+04  6.5536D+04 -6.5536D+04 -3.9322D+05          ION BETA
   -9.313225746155D-10 2.664535259100D-15   589824     1541 DELTA-UTC: A0,A1,T,W
                                                            END OF HEADER
 3 09  7 25  0  0  0.0 4.245121963322D-04 5.002220859751D-12 0.000000000000D+00
    5.500000000000D+01-4.475000000000D+01 5.151286000310D-09 2.010813944346D+00
   -2.412125468254D-06 1.212964567821D-02 1.251138746738D-05 5.153653156281D+03
    5.184000000000D+05-2.272427082062D-07-2.563146112890D+00-2.291053533554D-07
    9.267184856133D-01 1.227187500000D+02 9.162413940232D-01-8.185698110040D-09
    9.321816862518D-11 1.000000000000D+00 1.541000000000D+03 0.000000000000D+00
    2.800000000000D+00 0.000000000000D+00-4.190951585770D-09 5.500000000000D+01
    5.112180000000D+05 4.000000000000D+00
 6 09  7 25  0  0  0.0 2.016397193074D-04 1.023181539495D-11 0.000000000000D+00
    1.120000000000D+02-2.309375000000D+01 4.994493754998D-09-1.888539801720D+00
   -1.065433025360D-06 5.954761058092D-03 1.231767237186D-05 5.153708236694D+03
    5.184000000000D+05-3.166496753693D-08-2.495095520412D+00 1.601874828339D-07
    9.341332010488D-01 1.280625000000D+02-1.302967300744D+00-8.113195089998D-09
    1.246480492344D-10 1.000000000000D+00 1.541000000000D+03 0.000000000000D+00
    2.000000000000D+00 0.000000000000D+00-4.656612873077D-09 1.120000000000D+02
    5.112180000000D+05 4.000000000000D+00
 7 09  7 25  0  0  0.0 1.463806256652D-05-6.821210263297D-13 0.000000000000D+00
    1.600000000000D+01 6.968750000000D+01 4.608406244332D-09 6.307855583161D-01
    3.678724169731D-06 2.887282171287D-03 3.803521394730D-06 5.153657766342D+03
    5.184000000000D+05 1.285225152969D-07 1.741197791237D+00 7.450580596924D-09
    9.678582055563D-01 3.107500000000D+02 2.888896419343D+00-8.407493062976D-09
    5.168072413817D-10 1.000000000000D+00 1.541000000000D+03 0.000000000000D+00
    2.000000000000D+00 0.000000000000D+00-1.071020960808D-08 1.600000000000D+01
    5.112180000000D+05 4.000000000000D+00
18 09  7 25  0  0  0.0-3.726733848453D-05 3.069544618484D-12 0.000000000000D+00
    8.100000000000D+01-4.831250000000D+01 5.062353724495D-09-1.607334715874D+00
   -2.553686499596D-06 1.074095210060D-02 6.094574928284D-06 5.153606290817D+03
    5.184000000000D+05 2.402812242508D-07-3.251219816755D-01-2.142041921616D-07
    9.416356754770D-01 2.537500000000D+02-2.402395826229D+00-8.300345742717D-09
   -5.457370178516D-10 1.000000000000D+00 1.541000000000D+03 0.000000000000D+00
    2.000000000000D+00 0.000000000000D+00-1.071020960808D-08 8.100000000000D+01
    5.112180000000D+05 4.000000000000D+00
25 09  7 25  0  0  0.0 5.233641713858D-04 1.693933882052D-11 0.000000000000D+00
    3.700000000000D+01 8.146875000000D+01 4.520545441720D-09-1.187007792805D+00
    4.362314939499D-06 1.128110173158D-02 5.049630999565D-06 5.153644943237D+03
    5.184000000000D+05-1.471489667892D-07 1.646761667422D+00 1.098960638046D-07
    9.700612607052D-01 2.935625000000D+02-1.209715549554D+00-8.424279476483D-09
    6.103825677411D-10 1.000000000000D+00 1.541000000000D+03 0.000000000000D+00
    2.800000000000D+00 0.000000000000D+00-7.450580596924D-09 3.700000000000D+01
    5.112180000000D+05 4.000000000000D+00
15 09  7 25  0  0  0.0-3.104666247964D-04-2.273736754432D-12 0.000000000000D+00
    6.400000000000D+01 3.084375000000D+01 4.180174121031D-09 3.020898343993D+00
    1.616775989532D-06 1.504129962996D-03 1.267716288567D-05 5.153646938324D+03
    5.184000000000D+05 4.656612873077D-08 6.783960223974D-01-2.421438694000D-08
    9.563122913883D-01 1.309062500000D+02-4.833796109982D-01-7.905686446430D-09
   -7.071723137082D-11 1.000000000000D+00 1.541000000000D+03 0.000000000000D+00
    2.000000000000D+00 0.000000000000D+00-9.778887033463D-09 6.400000000000D+01
    5.112180000000D+05 4.000000000000D+00
22 09  7 25  0  0  0.0 1.948075369000D-04-9.094947017729D-13 0.000000000000D+00
    7.100000000000D+01-5.331250000000D+01 5.068782563711D-09-2.631102240358D+00
   -2.732500433922D-06 5.209728144109D-03 6.398186087608D-06 5.153654140472D+03
    5.184000000000D+05 7.450580596924D-09-3.195596014087D-01-7.636845111847D-08
    9.393049075797D-01 2.461562500000D+02-1.897862447600D+00-8.304631635527D-09
   -5.478799642568D-10 1.000000000000D+00 1.541000000000D+03 0.000000000000D+00
    2.800000000000D+00 0.000000000000D+00-1.769512891769D-08 7.100000000000D+01
    5.112180000000D+05 4.000000000000D+00
28 09  7 25  0  0  0.0-2.603745087981D-05-1.136868377216D-13 0.000000000000D+00
    6.100000000000D+01-1.101562500000D+02 4.606263297927D-09-2.392937300129D+00
   -5.772337317467D-06 1.496090018190D-02 5.826354026794D-06 5.153652235031D+03
    5.184000000000D+05 2.458691596985D-07 2.819054866962D+00 6.891787052155D-08
    9.674682676681D-01 2.639062500000D+02-2.020644525624D+00-8.116052351872D-09
   -1.732215010851D-10 1.000000000000D+00 1.541000000000D+03 0.000000000000D+00
    2.000000000000D+00 0.000000000000D+00-1.071020960808D-08 6.100000000000D+01
    5.112180000000D+05 4.000000000000D+00
11 09  7 25  0  0  0.0-1.204153522849D-05-1.591615728103D-12 0.000000000000D+00
    4.900000000000D+01 7.646875000000D+01 6.633133439490D-09 4.546106423237D-01
    4.215165972710D-06 9.547100751661D-03 6.519258022308D-06 5.153689275742D+03
    5.184000000000D+05-2.421438694000D-08-1.617764976531D+00 1.769512891769D-07
    8.888563429259D-01 2.116250000000D+02 7.062417288428D-01-9.277886461212D-09
    2.739399821284D-10 1.000000000000D+00 1.541000000000D+03 0.000000000000D+00
    2.000000000000D+00 0.000000000000D+00-1.164153218269D-08 4.900000000000D+01
    5.116020000000D+05 4.000000000000D+00
26 09  7 25  0  0  0.0 6.477441638708D-05 0.000000000000D+00 0.000000000000D+00
    4.300000000000D+01 3.609375000000D+01 3.426928459611D-09 3.642773936842D-01
    2.130866050720D-06 2.026108582504D-02 1.207552850246D-05 5.154912139893D+03
    5.184000000000D+05-3.781169652939D-07 7.500540991753D-01 2.365559339523D-07
    9.926825312005D-01 1.691250000000D+02 1.026597423938D+00-7.724250317459D-09
   -2.821546100149D-11 1.000000000000D+00 1.541000000000D+03 0.000000000000D+00
    2.000000000000D+00 0.000000000000D+00-6.519258022308D-09 4.300000000000D+01
    5.154420000000D+05 4.000000000000D+00
27 09  7 25  0  0  0.0 6.843591108918D-05 3.183231456205D-12 0.000000000000D+00
    5.200000000000D+01 8.534375000000D+01 4.321965741507D-09 3.003170496437D+00
    4.123896360397D-06 2.130856388249D-02 4.876405000687D-06 5.153763250351D+03
    5.184000000000D+05 3.930181264877D-07 1.683359706986D+00-1.154839992523D-07
    9.748008022176D-01 2.887500000000D+02-1.567976277169D+00-7.920687071267D-09
    5.025209320139D-10 1.000000000000D+00 1.541000000000D+03 0.000000000000D+00
    2.000000000000D+00 0.000000000000D+00-4.190951585770D-09 5.200000000000D+01
    5.157120000000D+05 4.000000000000D+00
17 09  7 25  0  0  0.0 7.261149585247D-05 2.501110429876D-12 0.000000000000D+00
    5.100000000000D+01-1.721875000000D+01 4.357681514926D-09-2.931342026276D+00
   -9.275972843170D-07 4.580967011862D-03 1.366809010506D-05 5.153721343994D+03
    5.184000000000D+05-6.146728992462D-08-2.430220362787D+00-1.098960638046D-07
    9.599887581279D-01 1.124375000000D+02-2.632833448835D+00-7.818539959286D-09
    9.464679956196D-11 1.000000000000D+00 1.541000000000D+03 0.000000000000D+00
    2.000000000000D+00 0.000000000000D+00-1.024454832077D-08 5.100000000000D+01
    5.167020000000D+05 4.000000000000D+00
32 09  7 25  0  0  0.0 2.265726216137D-04-6.252776074689D-12 0.000000000000D+00
    2.500000000000D+01-5.031250000000D+01 4.560547107950D-09 1.365755503324D+00
   -2.989545464516D-06 1.322199136484D-02 7.070600986481D-06 5.153766807556D+03
    5.184000000000D+05 2.123415470123D-07-2.682354012869D-01-2.142041921616D-07
    9.633619824306D-01 2.417812500000D+02-1.140501488088D+00-8.138910446860D-09
   -6.521700226421D-10 1.000000000000D+00 1.541000000000D+03 0.000000000000D+00
    2.000000000000D+00 0.000000000000D+00-3.259629011154D-09 2.500000000000D+01
    5.182680000000D+05 4.000000000000D+00
